[{"OBJECT_NAME":"STARLINK-32578","OBJECT_ID":"2024-210W","EPOCH":"2025-09-30T05:46:05.776032","MEAN_MOTION":15.27621198,"ECCENTRICITY":6.611e-5,"INCLINATION":42.9981,"RA_OF_ASC_NODE":5.7587,"ARG_OF_PERICENTER":123.0415,"MEAN_ANOMALY":237.05,"EPHEMERIS_TYPE":0,"CLASSIFICATION_TYPE":"U","NORAD_CAT_ID":61979,"ELEMENT_SET_NO":999,"REV_AT_EPOCH":5038,"BSTAR":0.0014292711,"MEAN_MOTION_DOT":0.00039328,"MEAN_MOTION_DDOT":0},{"OBJECT_NAME":"STARLINK-32517","OBJECT_ID":"2024-210X","EPOCH":"2025-09-30T06:49:00.307776","MEAN_MOTION":15.27601703,"ECCENTRICITY":8.15e-5,"INCLINATION":42.9981,"RA_OF_ASC_NODE":6.0871,"ARG_OF_PERICENTER":198.035,"MEAN_ANOMALY":162.0472,"EPHEMERIS_TYPE":0,"CLASSIFICATION_TYPE":"U","NORAD_CAT_ID":61980,"ELEMENT_SET_NO":999,"REV_AT_EPOCH":5029,"BSTAR":0.0018029376,"MEAN_MOTION_DOT":0.00049719,"MEAN_MOTION_DDOT":0},{"OBJECT_NAME":"STARLINK-32522","OBJECT_ID":"2024-210Y","EPOCH":"2025-09-28T16:21:09.073728","MEAN_MOTION":15.27616664,"ECCENTRICITY":0.0002764,"INCLINATION":43.0078,"RA_OF_ASC_NODE":14.6965,"ARG_OF_PERICENTER":285.0744,"MEAN_ANOMALY":74.9802,"EPHEMERIS_TYPE":0,"CLASSIFICATION_TYPE":"U","NORAD_CAT_ID":61981,"ELEMENT_SET_NO":999,"REV_AT_EPOCH":5010,"BSTAR":0.001530808,"MEAN_MOTION_DOT":0.00042153,"MEAN_MOTION_DDOT":0},{"OBJECT_NAME":"STARLINK-32560","OBJECT_ID":"2024-210Z","EPOCH":"2025-09-30T07:14:42.007776","MEAN_MOTION":15.27568809,"ECCENTRICITY":0.00014931,"INCLINATION":43.0023,"RA_OF_ASC_NODE":5.3566,"ARG_OF_PERICENTER":255.4295,"MEAN_ANOMALY":104.6391,"EPHEMERIS_TYPE":0,"CLASSIFICATION_TYPE":"U","NORAD_CAT_ID":61982,"ELEMENT_SET_NO":999,"REV_AT_EPOCH":5035,"BSTAR":0.0017672819,"MEAN_MOTION_DOT":0.00048675,"MEAN_MOTION_DDOT":0},{"OBJECT_NAME":"STARLINK-11433 [DTC]","OBJECT_ID":"2024-213A","EPOCH":"2025-09-29T20:04:22.842336","MEAN_MOTION":15.69769333,"ECCENTRICITY":0.00019145,"INCLINATION":53.1564,"RA_OF_ASC_NODE":114.0402,"ARG_OF_PERICENTER":13.3683,"MEAN_ANOMALY":346.7385,"EPHEMERIS_TYPE":0,"CLASSIFICATION_TYPE":"U","NORAD_CAT_ID":62008,"ELEMENT_SET_NO":999,"REV_AT_EPOCH":4965,"BSTAR":0.0028035738,"MEAN_MOTION_DOT":0.00354862,"MEAN_MOTION_DDOT":0},{"OBJECT_NAME":"STARLINK-11262 [DTC]","OBJECT_ID":"2024-213B","EPOCH":"2025-09-30T01:35:55.721760","MEAN_MOTION":15.69855712,"ECCENTRICITY":6.407e-5,"INCLINATION":53.1564,"RA_OF_ASC_NODE":113.363,"ARG_OF_PERICENTER":121.1895,"MEAN_ANOMALY":238.9186,"EPHEMERIS_TYPE":0,"CLASSIFICATION_TYPE":"U","NORAD_CAT_ID":62009,"ELEMENT_SET_NO":999,"REV_AT_EPOCH":4968,"BSTAR":0.0022043091,"MEAN_MOTION_DOT":0.00277255,"MEAN_MOTION_DDOT":0},{"OBJECT_NAME":"STARLINK-11326 [DTC]","OBJECT_ID":"2024-213C","EPOCH":"2025-09-30T02:39:20.288736","MEAN_MOTION":15.6986586,"ECCENTRICITY":0.00050792,"INCLINATION":53.1568,"RA_OF_ASC_NODE":112.9152,"ARG_OF_PERICENTER":184.8421,"MEAN_ANOMALY":175.2549,"EPHEMERIS_TYPE":0,"CLASSIFICATION_TYPE":"U","NORAD_CAT_ID":62010,"ELEMENT_SET_NO":999,"REV_AT_EPOCH":4969,"BSTAR":0.0016743821,"MEAN_MOTION_DOT":0.00208882,"MEAN_MOTION_DDOT":0},{"OBJECT_NAME":"STARLINK-11330 [DTC]","OBJECT_ID":"2024-213D","EPOCH":"2025-09-30T01:28:52.166496","MEAN_MOTION":15.69849936,"ECCENTRICITY":7.8e-5,"INCLINATION":53.1563,"RA_OF_ASC_NODE":113.3294,"ARG_OF_PERICENTER":94.3071,"MEAN_ANOMALY":265.8036,"EPHEMERIS_TYPE":0,"CLASSIFICATION_TYPE":"U","NORAD_CAT_ID":62011,"ELEMENT_SET_NO":999,"REV_AT_EPOCH":4968,"BSTAR":0.002548203,"MEAN_MOTION_DOT":0.00322293,"MEAN_MOTION_DDOT":0},{"OBJECT_NAME":"STARLINK-11363 [DTC]","OBJECT_ID":"2024-213E","EPOCH":"2025-09-30T02:25:14.171808","MEAN_MOTION":15.69767109,"ECCENTRICITY":0.00010682,"INCLINATION":53.1566,"RA_OF_ASC_NODE":112.8528,"ARG_OF_PERICENTER":41.775,"MEAN_ANOMALY":318.3349,"EPHEMERIS_TYPE":0,"CLASSIFICATION_TYPE":"U","NORAD_CAT_ID":62012,"ELEMENT_SET_NO":999,"REV_AT_EPOCH":4969,"BSTAR":0.0015791727,"MEAN_MOTION_DOT":0.0019577,"MEAN_MOTION_DDOT":0},{"OBJECT_NAME":"STARLINK-11377 [DTC]","OBJECT_ID":"2024-213F","EPOCH":"2025-09-29T20:11:26.834784","MEAN_MOTION":15.69778207,"ECCENTRICITY":0.00017719,"INCLINATION":53.1566,"RA_OF_ASC_NODE":114.0826,"ARG_OF_PERICENTER":21.6082,"MEAN_ANOMALY":338.501,"EPHEMERIS_TYPE":0,"CLASSIFICATION_TYPE":"U","NORAD_CAT_ID":62013,"ELEMENT_SET_NO":999,"REV_AT_EPOCH":4965,"BSTAR":0.0035902569,"MEAN_MOTION_DOT":0.00460697,"MEAN_MOTION_DDOT":0},{"OBJECT_NAME":"STARLINK-11385 [DTC]","OBJECT_ID":"2024-213G","EPOCH":"2025-09-29T20:46:46.226784","MEAN_MOTION":15.69735667,"ECCENTRICITY":0.0002054,"INCLINATION":53.1573,"RA_OF_ASC_NODE":114.2404,"ARG_OF_PERICENTER":44.1408,"MEAN_ANOMALY":315.9773,"EPHEMERIS_TYPE":0,"CLASSIFICATION_TYPE":"U","NORAD_CAT_ID":62014,"ELEMENT_SET_NO":999,"REV_AT_EPOCH":4965,"BSTAR":0.0013498,"MEAN_MOTION_DOT":0.00166442,"MEAN_MOTION_DDOT":0},{"OBJECT_NAME":"STARLINK-11396 [DTC]","OBJECT_ID":"2024-213H","EPOCH":"2025-09-30T03:35:42.679392","MEAN_MOTION":15.69881459,"ECCENTRICITY":0.00010005,"INCLINATION":53.1575,"RA_OF_ASC_NODE":112.4377,"ARG_OF_PERICENTER":222.2591,"MEAN_ANOMALY":137.835,"EPHEMERIS_TYPE":0,"CLASSIFICATION_TYPE":"U","NORAD_CAT_ID":62015,"ELEMENT_SET_NO":999,"REV_AT_EPOCH":4970,"BSTAR":0.0022287644,"MEAN_MOTION_DOT":0.00280752,"MEAN_MOTION_DDOT":0},{"OBJECT_NAME":"STARLINK-11393 [DTC]","OBJECT_ID":"2024-213J","EPOCH":"2025-09-30T06:32:01.949856","MEAN_MOTION":15.69801873,"ECCENTRICITY":7.125e-5,"INCLINATION":53.1571,"RA_OF_ASC_NODE":111.7814,"ARG_OF_PERICENTER":92.9148,"MEAN_ANOMALY":267.1952,"EPHEMERIS_TYPE":0,"CLASSIFICATION_TYPE":"U","NORAD_CAT_ID":62016,"ELEMENT_SET_NO":999,"REV_AT_EPOCH":4972,"BSTAR":0.0023382518,"MEAN_MOTION_DOT":0.00294085,"MEAN_MOTION_DDOT":0},{"OBJECT_NAME":"STARLINK-11343 [DTC]","OBJECT_ID":"2024-213K","EPOCH":"2025-09-30T01:14:44.506464","MEAN_MOTION":15.69837918,"ECCENTRICITY":6.231e-5,"INCLINATION":53.1572,"RA_OF_ASC_NODE":113.2671,"ARG_OF_PERICENTER":71.7307,"MEAN_ANOMALY":288.3779,"EPHEMERIS_TYPE":0,"CLASSIFICATION_TYPE":"U","NORAD_CAT_ID":62017,"ELEMENT_SET_NO":999,"REV_AT_EPOCH":4968,"BSTAR":0.0020249513,"MEAN_MOTION_DOT":0.0025373,"MEAN_MOTION_DDOT":0},{"OBJECT_NAME":"STARLINK-11411 [DTC]","OBJECT_ID":"2024-213L","EPOCH":"2025-09-29T20:25:34.415328","MEAN_MOTION":15.69806862,"ECCENTRICITY":4.9e-5,"INCLINATION":53.1563,"RA_OF_ASC_NODE":114.1423,"ARG_OF_PERICENTER":94.4616,"MEAN_ANOMALY":265.6457,"EPHEMERIS_TYPE":0,"CLASSIFICATION_TYPE":"U","NORAD_CAT_ID":62018,"ELEMENT_SET_NO":999,"REV_AT_EPOCH":4965,"BSTAR":0.0016727,"MEAN_MOTION_DOT":0.00208054,"MEAN_MOTION_DDOT":0},{"OBJECT_NAME":"STARLINK-11404 [DTC]","OBJECT_ID":"2024-213M","EPOCH":"2025-09-30T04:46:21.871200","MEAN_MOTION":15.69815532,"ECCENTRICITY":0.00012371,"INCLINATION":53.1566,"RA_OF_ASC_NODE":112.7631,"ARG_OF_PERICENTER":148.8712,"MEAN_ANOMALY":211.2379,"EPHEMERIS_TYPE":0,"CLASSIFICATION_TYPE":"U","NORAD_CAT_ID":62019,"ELEMENT_SET_NO":999,"REV_AT_EPOCH":4970,"BSTAR":0.0023315365,"MEAN_MOTION_DOT":0.00293372,"MEAN_MOTION_DDOT":0}]
