STARLINK-32578          
1 61979U 24210W   25273.24034463  .00039328  00000+0  14293-2 0  9991
2 61979  42.9981   5.7587 0000661 123.0415 237.0500 15.27621198 50383
STARLINK-32517          
1 61980U 24210X   25273.28403134  .00049719  00000+0  18029-2 0  9998
2 61980  42.9981   6.0871 0000815 198.0350 162.0472 15.27601703 50291
STARLINK-32522          
1 61981U 24210Y   25271.68135502  .00042153  00000+0  15308-2 0  9994
2 61981  43.0078  14.6965 0002764 285.0744  74.9802 15.27616664 50109
STARLINK-32560          
1 61982U 24210Z   25273.30187509  .00048675  00000+0  17673-2 0  9992
2 61982  43.0023   5.3566 0001493 255.4295 104.6391 15.27568809 50352
STARLINK-11433 [DTC]    
1 62008U 24213A   25272.83637549  .00354862  00000+0  28036-2 0  9999
2 62008  53.1564 114.0402 0001914  13.3683 346.7385 15.69769333 49655
STARLINK-11262 [DTC]    
1 62009U 24213B   25273.06661715  .00277255  00000+0  22043-2 0  9990
2 62009  53.1564 113.3630 0000640 121.1895 238.9186 15.69855712 49680
STARLINK-11326 [DTC]    
1 62010U 24213C   25273.11065149  .00208882  00000+0  16744-2 0  9998
2 62010  53.1568 112.9152 0005079 184.8421 175.2549 15.69865860 49694
STARLINK-11330 [DTC]    
1 62011U 24213D   25273.06171489  .00322293  00000+0  25482-2 0  9990
2 62011  53.1563 113.3294 0000780  94.3071 265.8036 15.69849936 49684
STARLINK-11363 [DTC]    
1 62012U 24213E   25273.10085847  .00195770  00000+0  15792-2 0  9999
2 62012  53.1566 112.8528 0001068  41.7750 318.3349 15.69767109 49695
STARLINK-11377 [DTC]    
1 62013U 24213F   25272.84128281  .00460697  00000+0  35903-2 0  9999
2 62013  53.1566 114.0826 0001771  21.6082 338.5010 15.69778207 49653
STARLINK-11385 [DTC]    
1 62014U 24213G   25272.86581281  .00166442  00000+0  13498-2 0  9991
2 62014  53.1573 114.2404 0002054  44.1408 315.9773 15.69735667 49651
STARLINK-11396 [DTC]    
1 62015U 24213H   25273.14979953  .00280752  00000+0  22288-2 0  9999
2 62015  53.1575 112.4377 0001000 222.2591 137.8350 15.69881459 49704
STARLINK-11393 [DTC]    
1 62016U 24213J   25273.27224479  .00294085  00000+0  23383-2 0  9991
2 62016  53.1571 111.7814 0000712  92.9148 267.1952 15.69801873 49727
STARLINK-11343 [DTC]    
1 62017U 24213K   25273.05190401  .00253730  00000+0  20250-2 0  9997
2 62017  53.1572 113.2671 0000623  71.7307 288.3779 15.69837918 49686
STARLINK-11411 [DTC]    
1 62018U 24213L   25272.85109277  .00208054  00000+0  16727-2 0  9999
2 62018  53.1563 114.1423 0000490  94.4616 265.6457 15.69806862 49651
STARLINK-11404 [DTC]    
1 62019U 24213M   25273.19886425  .00293372  00000+0  23315-2 0  9993
2 62019  53.1566 112.7631 0001237 148.8712 211.2379 15.69815532 49701
